{
    "links": {
        "self": "http://www.neowsapp.com/rest/v1/neo/3733856?api_key=iIulBulltgU6a56xZRHN4H3l9WmuAYTsLGpBGhQ2"
    },
    "id": "3733856",
    "neo_reference_id": "3733856",
    "name": "(2015 VP64)",
    "designation": "2015 VP64",
    "nasa_jpl_url": "http://ssd.jpl.nasa.gov/sbdb.cgi?sstr=3733856",
    "absolute_magnitude_h": 28.3,
    "estimated_diameter": {
        "kilometers": {
            "estimated_diameter_min": 0.0058150704,
            "estimated_diameter_max": 0.0130028927
        },
        "meters": {
            "estimated_diameter_min": 5.8150703965,
            "estimated_diameter_max": 13.0028927004
        },
        "miles": {
            "estimated_diameter_min": 0.0036133161,
            "estimated_diameter_max": 0.0080796204
        },
        "feet": {
            "estimated_diameter_min": 19.0783155595,
            "estimated_diameter_max": 42.6604104873
        }
    },
    "is_potentially_hazardous_asteroid": false,
    "close_approach_data": [
        {
            "close_approach_date": "2006-05-11",
            "close_approach_date_full": "2006-May-11 03:22",
            "epoch_date_close_approach": 1147317720000,
            "relative_velocity": {
                "kilometers_per_second": "13.7788102586",
                "kilometers_per_hour": "49603.7169307843",
                "miles_per_hour": "30821.8206673532"
            },
            "miss_distance": {
                "astronomical": "0.0810148113",
                "lunar": "31.5147615957",
                "kilometers": "12119643.208931931",
                "miles": "7530797.0823294078"
            },
            "orbiting_body": "Venus"
        },
        {
            "close_approach_date": "2015-11-05",
            "close_approach_date_full": "2015-Nov-05 07:41",
            "epoch_date_close_approach": 1446709260000,
            "relative_velocity": {
                "kilometers_per_second": "21.3871495548",
                "kilometers_per_hour": "76993.7383971702",
                "miles_per_hour": "47840.9148390639"
            },
            "miss_distance": {
                "astronomical": "0.000757518",
                "lunar": "0.294674502",
                "kilometers": "113323.07928666",
                "miles": "70415.696249508"
            },
            "orbiting_body": "Moon"
        },
        {
            "close_approach_date": "2015-11-05",
            "close_approach_date_full": "2015-Nov-05 09:15",
            "epoch_date_close_approach": 1446714900000,
            "relative_velocity": {
                "kilometers_per_second": "20.4532322386",
                "kilometers_per_hour": "73631.6360588048",
                "miles_per_hour": "45751.8351944279"
            },
            "miss_distance": {
                "astronomical": "0.0018746864",
                "lunar": "0.7292530096",
                "kilometers": "280449.092357968",
                "miles": "174262.9853092384"
            },
            "orbiting_body": "Earth"
        },
        {
            "close_approach_date": "2018-11-12",
            "close_approach_date_full": "2018-Nov-12 09:51",
            "epoch_date_close_approach": 1542016260000,
            "relative_velocity": {
                "kilometers_per_second": "24.3753595369",
                "kilometers_per_hour": "87751.2943328764",
                "miles_per_hour": "54525.2417481142"
            },
            "miss_distance": {
                "astronomical": "0.131181234",
                "lunar": "51.029500026",
                "kilometers": "19624433.19037158",
                "miles": "12194057.338544604"
            },
            "orbiting_body": "Earth"
        },
        {
            "close_approach_date": "2127-05-18",
            "close_approach_date_full": "2127-May-18 13:38",
            "epoch_date_close_approach": 4966321080000,
            "relative_velocity": {
                "kilometers_per_second": "21.312421758",
                "kilometers_per_hour": "76724.7183286247",
                "miles_per_hour": "47673.7562303613"
            },
            "miss_distance": {
                "astronomical": "0.0023067068",
                "lunar": "0.8973089452",
                "kilometers": "345078.423994516",
                "miles": "214421.7897996808"
            },
            "orbiting_body": "Moon"
        }
    ],
    "orbital_data": {
        "orbit_id": "5",
        "orbit_determination_date": "2017-04-06 08:30:52",
        "first_observation_date": "2015-11-07",
        "last_observation_date": "2015-11-09",
        "data_arc_in_days": 2,
        "observations_used": 30,
        "orbit_uncertainty": "8",
        "minimum_orbit_intersection": ".000319343",
        "jupiter_tisserand_invariant": "3.396",
        "epoch_osculation": "2457334.5",
        "eccentricity": ".6987215188783361",
        "semi_major_axis": "2.090654779162269",
        "inclination": ".7151404754393659",
        "ascending_node_longitude": "44.12536232042804",
        "orbital_period": "1104.134334908356",
        "perihelion_distance": ".629869296415756",
        "perihelion_argument": "274.8979560313128",
        "aphelion_distance": "3.551440261908782",
        "perihelion_time": "2457286.403383299097",
        "mean_anomaly": "15.68177119839518",
        "mean_motion": ".326047283032712",
        "equinox": "J2000",
        "orbit_class": {
            "orbit_class_type": "APO",
            "orbit_class_description": "Near-Earth asteroid orbits which cross the Earth’s orbit similar to that of 1862 Apollo",
            "orbit_class_range": "a (semi-major axis) > 1.0 AU; q (perihelion) < 1.017 AU"
        }
    },
    "is_sentry_object": false
}